GOES 18                 
1 51850U 22021A   26066.14628090  .00000094  00000+0  00000+0 0  9997
2 51850   0.0304  62.9266 0000799 346.4918  31.0921  1.00273288  5562
GOES 19                 
1 60133U 24119A   26066.11850639 -.00000251  00000+0  00000+0 0  9990
2 60133   0.0464 332.0942 0001197  66.1335  94.0591  1.00271728  5948
