[{"OBJECT_NAME":"GOES 18","OBJECT_ID":"2022-021A","EPOCH":"2026-03-07T03:30:38.669760","MEAN_MOTION":1.00273288,"ECCENTRICITY":7.99e-5,"INCLINATION":0.0304,"RA_OF_ASC_NODE":62.9266,"ARG_OF_PERICENTER":346.4918,"MEAN_ANOMALY":31.0921,"EPHEMERIS_TYPE":0,"CLASSIFICATION_TYPE":"U","NORAD_CAT_ID":51850,"ELEMENT_SET_NO":999,"REV_AT_EPOCH":556,"BSTAR":0,"MEAN_MOTION_DOT":9.4e-7,"MEAN_MOTION_DDOT":0},{"OBJECT_NAME":"GOES 19","OBJECT_ID":"2024-119A","EPOCH":"2026-03-07T02:50:38.952096","MEAN_MOTION":1.00271728,"ECCENTRICITY":0.0001197,"INCLINATION":0.0464,"RA_OF_ASC_NODE":332.0942,"ARG_OF_PERICENTER":66.1335,"MEAN_ANOMALY":94.0591,"EPHEMERIS_TYPE":0,"CLASSIFICATION_TYPE":"U","NORAD_CAT_ID":60133,"ELEMENT_SET_NO":999,"REV_AT_EPOCH":594,"BSTAR":0,"MEAN_MOTION_DOT":-2.51e-6,"MEAN_MOTION_DDOT":0}]
